ONEWEB-0158             
1 48054U 21025N   25181.56871314  .00000357  00000+0  94364-3 0  9996
2 48054  87.8958  30.0728 0001737  90.5737 269.5591 13.13466815207472
ONEWEB-0157             
1 48055U 21025P   25181.51792940 -.00000206  00000+0 -59901-3 0  9992
2 48055  87.8956  30.0937 0001998  73.1021 287.0327 13.13469589207412
ONEWEB-0162             
1 48056U 21025Q   25181.57027454  .00000344  00000+0  90758-3 0  9996
2 48056  87.8957  30.0817 0001802  83.9161 276.2174 13.13469675207369
ONEWEB-0155             
1 48057U 21025R   25181.50100933  .00000186  00000+0  47348-3 0  9995
2 48057  87.8956  30.1036 0002006  83.9375 276.1983 13.13469078207529
ONEWEB-0149             
1 48058U 21025S   25181.52300727 -.00000281  00000+0 -80563-3 0  9995
2 48058  87.8956  30.0938 0001600  82.8517 277.2794 13.13469527207335
ONEWEB-0148             
1 48059U 21025T   25180.64781710  .00000339  00000+0  89443-3 0  9991
2 48059  87.8959  30.2915 0001459  64.9882 295.1398 13.13469956207339
ONEWEB-0160             
1 48060U 21025U   25180.81710090  .00000140  00000+0  34862-3 0  9990
2 48060  87.8960  30.2549 0001791 112.2673 247.8646 13.13469386207304
ONEWEB-0163             
1 48061U 21025V   25181.10658351  .00000421  00000+0  11171-2 0  9994
2 48061  87.8956  30.1784 0001960  79.2070 280.9280 13.13471306207476
